NORAD_CAT_ID,OBJECT_NAME,OBJECT_TYPE,EPOCH,MEAN_MOTION,ECCENTRICITY,INCLINATION,RA_OF_ASC_NODE,ARG_OF_PERICENTER,MEAN_ANOMALY,BSTAR,MEAN_MOTION_DOT,MEAN_MOTION_DDOT,TLE_LINE0,TLE_LINE1,TLE_LINE2,SEMIMAJOR_AXIS,PERIOD,APOGEE,PERIGEE,DECAYED
52537.0,STARLINK-3897,PAYLOAD,2024-01-28 02:52:44,15.08833909,0.0001705,53.2202,352.6404,107.671,252.4468,2.7628e-06,-2.44e-06,0.0,0 STARLINK-3897,1 52537U 22051E   24028.11995461 -.00000244  00000-0  27628-5 0  9995,2 52537  53.2202 352.6404 0001705 107.6710 252.4468 15.08833909 95031,6917.899,95.438,540.944,538.585,0.0
52537.0,STARLINK-3897,PAYLOAD,2024-01-28 07:38:53,15.08833974,0.0001684,53.2202,351.7487,104.6147,255.5032,-3.7698e-06,-3.48e-06,0.0,0 STARLINK-3897,1 52537U 22051E   24028.31867591 -.00000348  00000-0 -37698-5 0  9993,2 52537  53.2202 351.7487 0001684 104.6147 255.5032 15.08833974 94996,6917.899,95.438,540.929,538.599,0.0
52537.0,STARLINK-3897,PAYLOAD,2024-01-29 07:29:40,15.08840232,0.0001698,53.2188,347.2862,113.9825,246.1345,7.1855e-05,8.56e-06,0.0,0 STARLINK-3897,1 52537U 22051E   24029.31227223  .00000856  00000-0  71855-4 0  9990,2 52537  53.2188 347.2862 0001698 113.9825 246.1345 15.08840232 95211,6917.88,95.438,540.919,538.57,0.0
52537.0,STARLINK-3897,PAYLOAD,2024-01-30 05:45:04,15.08841524,0.0001506,53.2188,343.121,80.2268,279.8894,0.00011167,1.49e-05,0.0,0 STARLINK-3897,1 52537U 22051E   24030.23963313  .00001490  00000-0  11167-3 0  9994,2 52537  53.2188 343.1210 0001506  80.2268 279.8894 15.08841524 95282,6917.876,95.437,540.783,538.699,0.0
52537.0,STARLINK-3897,PAYLOAD,2024-01-31 04:00:28,15.088459,0.0001589,53.2182,338.9623,84.6202,275.4971,1.0442e-05,-1.22e-06,0.0,0 STARLINK-3897,1 52537U 22051E   24031.16699396 -.00000122  00000-0  10442-4 0  9992,2 52537  53.2182 338.9623 0001589  84.6202 275.4971 15.08845900 95496,6917.862,95.437,540.827,538.628,0.0
52537.0,STARLINK-3897,PAYLOAD,2024-01-31 19:54:20,15.08837293,0.0001829,53.2175,335.9947,79.0689,281.0509,5.0736e-05,5.19e-06,0.0,0 STARLINK-3897,1 52537U 22051E   24031.82939918  .00000519  00000-0  50736-4 0  9991,2 52537  53.2175 335.9947 0001829  79.0689 281.0509 15.08837293 95595,6917.889,95.438,541.019,538.488,0.0
52537.0,STARLINK-3897,PAYLOAD,2024-02-01 03:51:15,15.08838882,0.0001772,53.2176,334.5049,67.6768,292.4412,-1.217e-05,-4.82e-06,0.0,0 STARLINK-3897,1 52537U 22051E   24032.16060087 -.00000482  00000-0 -12170-4 0  9992,2 52537  53.2176 334.5049 0001772  67.6768 292.4412 15.08838882 95574,6917.884,95.438,540.975,538.523,0.0
52537.0,STARLINK-3897,PAYLOAD,2024-02-02 02:06:39,15.08847856,0.0001755,53.2175,330.3406,70.618,289.5002,4.3158e-05,3.99e-06,0.0,0 STARLINK-3897,1 52537U 22051E   24033.08795333  .00000399  00000-0  43158-4 0  9998,2 52537  53.2175 330.3406 0001755  70.6180 289.5002 15.08847856 95783,6917.856,95.437,540.935,538.507,0.0
52537.0,STARLINK-3897,PAYLOAD,2024-02-02 19:35:54,15.08833716,0.0002377,53.2174,327.0761,47.4955,312.6238,0.00012246,1.661e-05,0.0,0 STARLINK-3897,1 52537U 22051E   24033.81660078  .00001661  00000-0  12246-3 0  9992,2 52537  53.2174 327.0761 0002377  47.4955 312.6238 15.08833716 95893,6917.9,95.438,541.409,538.12,0.0
52537.0,STARLINK-3897,PAYLOAD,2024-02-02 22:46:40,15.088367,0.000169,53.2184,326.4744,96.6881,263.4304,2.0848e-05,4.4e-07,0.0,0 STARLINK-3897,1 52537U 22051E   24033.94907947  .00000044  00000-0  20848-4 0  9997,2 52537  53.2184 326.4744 0001690  96.6881 263.4304 15.08836700 95847,6917.89,95.438,540.925,538.586,0.0
52537.0,STARLINK-3897,PAYLOAD,2024-02-03 01:57:26,15.08835529,0.0001632,53.2183,325.8797,100.1965,259.9212,4.8964e-06,-2.1e-06,0.0,0 STARLINK-3897,1 52537U 22051E   24034.08156041 -.00000210  00000-0  48964-5 0  9990,2 52537  53.2183 325.8797 0001632 100.1965 259.9212 15.08835529 95865,6917.894,95.438,540.888,538.63,0.0
52537.0,STARLINK-3897,PAYLOAD,2024-02-03 22:37:27,15.08840987,0.0001307,53.2176,322.0129,95.4852,264.629,-1.6592e-05,-5.52e-06,0.0,0 STARLINK-3897,1 52537U 22051E   24034.94267805 -.00000552  00000-0 -16592-4 0  9997,2 52537  53.2176 322.0129 0001307  95.4852 264.6290 15.08840987 95992,6917.877,95.437,540.647,538.838,0.0
52537.0,STARLINK-3897,PAYLOAD,2024-02-04 00:12:50,15.08847721,0.0001387,53.2174,321.7169,84.9699,275.1452,-6.5959e-05,-1.338e-05,0.0,0 STARLINK-3897,1 52537U 22051E   24035.00891681 -.00001338  00000-0 -65959-4 0  9994,2 52537  53.2174 321.7169 0001387  84.9699 275.1452 15.08847721 96070,6917.857,95.437,540.681,538.762,0.0
52537.0,STARLINK-3897,PAYLOAD,2024-02-04 04:58:58,15.08864229,0.0001546,53.2175,320.8233,95.3766,264.7402,-0.0001193,-2.187e-05,0.0,0 STARLINK-3897,1 52537U 22051E   24035.20762724 -.00002187  00000-0 -11930-3 0  9993,2 52537  53.2175 320.8233 0001546  95.3766 264.7402 15.08864229 96106,6917.806,95.436,540.741,538.602,0.0
52537.0,STARLINK-3897,PAYLOAD,2024-02-04 19:17:28,15.08840835,0.0001917,53.2175,318.1469,87.504,272.6172,5.9843e-05,6.64e-06,0.0,0 STARLINK-3897,1 52537U 22051E   24035.80379664  .00000664  00000-0  59843-4 0  9998,2 52537  53.2175 318.1469 0001917  87.5040 272.6172 15.08840835 96195,6917.878,95.438,541.069,538.417,0.0
52537.0,STARLINK-3897,PAYLOAD,2024-02-04 22:28:14,15.08842736,0.0001741,53.2168,317.5509,114.3024,245.815,6.1225e-05,6.87e-06,0.0,0 STARLINK-3897,1 52537U 22051E   24035.93627326  .00000687  00000-0  61225-4 0  9995,2 52537  53.2168 317.5509 0001741 114.3024 245.8150 15.08842736 96146,6917.872,95.437,540.941,538.533,0.0
52537.0,STARLINK-3897,PAYLOAD,2024-02-05 11:11:19,15.08842946,0.0001573,53.2169,315.1744,85.6658,274.4514,6.6055e-05,7.63e-06,0.0,0 STARLINK-3897,1 52537U 22051E   24036.46619418  .00000763  00000-0  66055-4 0  9998,2 52537  53.2169 315.1744 0001573  85.6658 274.4514 15.08842946 96222,6917.871,95.437,540.825,538.648,0.0
52537.0,STARLINK-3897,PAYLOAD,2024-02-05 22:19:03,15.08689989,0.000228,53.2178,313.0992,90.8315,269.2939,0.0018158,0.0002861,0.0,0 STARLINK-3897,1 52537U 22051E   24036.92989813  .00028610  00000-0  18158-2 0  9998,2 52537  53.2178 313.0992 0002280  90.8315 269.2939 15.08689989 96294,6918.339,95.447,541.781,538.627,0.0
52537.0,STARLINK-3897,PAYLOAD,2024-02-05 23:54:26,15.08719205,0.0002056,53.2182,312.8,91.3759,268.7469,0.0014299,0.00022467,0.0,0 STARLINK-3897,1 52537U 22051E   24036.99614000  .00022467  00000-0  14299-2 0  9994,2 52537  53.2182 312.8000 0002056  91.3759 268.7469 15.08719205 96371,6918.25,95.445,541.537,538.692,0.0
52537.0,STARLINK-3897,PAYLOAD,2024-02-06 22:09:47,15.08855566,0.0001445,53.2187,308.6349,97.4543,262.6613,0.00012233,1.66e-05,0.0,0 STARLINK-3897,1 52537U 22051E   24037.92346212  .00001660  00000-0  12233-3 0  9994,2 52537  53.2187 308.6349 0001445  97.4543 262.6613 15.08855566 96447,6917.833,95.437,540.697,538.698,0.0
52537.0,STARLINK-3897,PAYLOAD,2024-02-07 01:20:32,15.08869303,0.0001448,53.2172,308.0382,97.2691,262.8466,0.00022868,3.356e-05,0.0,0 STARLINK-3897,1 52537U 22051E   24038.05592981  .00003356  00000-0  22868-3 0  9994,2 52537  53.2172 308.0382 0001448  97.2691 262.8466 15.08869303 96539,6917.791,95.436,540.658,538.654,0.0
52537.0,STARLINK-3897,PAYLOAD,2024-02-07 10:52:53,15.0882765,0.0001608,53.2177,306.2599,92.6093,267.5083,-0.00010479,-1.955e-05,0.0,0 STARLINK-3897,1 52537U 22051E   24038.45340248 -.00001955  00000-0 -10479-3 0  9995,2 52537  53.2177 306.2599 0001608  92.6093 267.5083 15.08827650 96599,6917.918,95.438,540.896,538.671,0.0
52537.0,STARLINK-3897,PAYLOAD,2024-02-07 22:00:37,15.0880995,0.0001303,53.2178,304.1774,94.0573,266.0568,-0.00013675,-2.462e-05,0.0,0 STARLINK-3897,1 52537U 22051E   24038.91709835 -.00002462  00000-0 -13675-3 0  9992,2 52537  53.2178 304.1774 0001303  94.0573 266.0568 15.08809950 96598,6917.972,95.439,540.739,538.936,0.0
52537.0,STARLINK-3897,PAYLOAD,2024-02-08 02:46:46,15.08819735,0.0001747,53.2188,303.2771,91.3356,268.7836,-0.00012339,-2.25e-05,0.0,0 STARLINK-3897,1 52537U 22051E   24039.11581524 -.00002250  00000-0 -12339-3 0  9999,2 52537  53.2188 303.2771 0001747  91.3356 268.7836 15.08819735 96697,6917.942,95.439,541.016,538.599,0.0
52537.0,STARLINK-3897,PAYLOAD,2024-02-08 21:51:22,15.08854745,0.0001376,53.2173,299.7111,85.6382,274.4768,-0.00013608,-2.454e-05,0.0,0 STARLINK-3897,1 52537U 22051E   24039.91067561 -.00002454  00000-0 -13608-3 0  9993,2 52537  53.2173 299.7111 0001376  85.6382 274.4768 15.08854745 96745,6917.835,95.437,540.652,538.748,0.0
52537.0,STARLINK-3897,PAYLOAD,2024-02-09 02:37:31,15.08853999,0.0001548,53.217,298.8162,77.0688,283.0477,0.00011466,1.538e-05,0.0,0 STARLINK-3897,1 52537U 22051E   24040.10939252  .00001538  00000-0  11466-3 0  9991,2 52537  53.2170 298.8162 0001548  77.0688 283.0477 15.08853999 96847,6917.838,95.437,540.773,538.632,0.0
52537.0,STARLINK-3897,PAYLOAD,2024-02-09 16:56:01,15.08830755,0.0001318,53.2157,296.1387,91.035,269.0793,0.00029277,4.373e-05,0.0,0 STARLINK-3897,1 52537U 22051E   24040.70556862  .00004373  00000-0  29277-3 0  9998,2 52537  53.2157 296.1387 0001318  91.0350 269.0793 15.08830755 96939,6917.909,95.438,540.685,538.862,0.0
52537.0,STARLINK-3897,PAYLOAD,2024-02-10 02:28:19,15.08842503,0.0001266,53.2147,294.357,88.5485,271.5652,0.00035826,5.419e-05,0.0,0 STARLINK-3897,1 52537U 22051E   24041.10300530  .00005419  00000-0  35826-3 0  9991,2 52537  53.2147 294.3570 0001266  88.5485 271.5652 15.08842503 96996,6917.873,95.437,540.614,538.862,0.0
52537.0,STARLINK-3897,PAYLOAD,2024-02-10 21:32:57,15.08845378,0.0001556,53.2163,290.7884,99.8094,260.3074,3.6619e-05,2.95e-06,0.0,0 STARLINK-3897,1 52537U 22051E   24041.89788489  .00000295  00000-0  36619-4 0  9999,2 52537  53.2163 290.7884 0001556  99.8094 260.3074 15.08845378 97049,6917.864,95.437,540.805,538.653,0.0
52537.0,STARLINK-3897,PAYLOAD,2024-02-11 02:19:06,15.08847261,0.0001556,53.2163,289.8953,97.6537,262.4632,8.3837e-05,1.047e-05,0.0,0 STARLINK-3897,1 52537U 22051E   24042.09660346  .00001047  00000-0  83837-4 0  9993,2 52537  53.2163 289.8953 0001556  97.6537 262.4632 15.08847261 97140,6917.858,95.437,540.8,538.647,0.0
